[{"OBJECT_NAME":"OBJECT C","OBJECT_ID":"2023-104C","EPOCH":"2026-03-09T22:39:44.230752","MEAN_MOTION":15.26846312,"ECCENTRICITY":0.00113074,"INCLINATION":97.273,"RA_OF_ASC_NODE":135.3333,"ARG_OF_PERICENTER":3.876,"MEAN_ANOMALY":356.2565,"EPHEMERIS_TYPE":0,"CLASSIFICATION_TYPE":"U","NORAD_CAT_ID":57426,"ELEMENT_SET_NO":999,"REV_AT_EPOCH":14663,"BSTAR":0.00062618506,"MEAN_MOTION_DOT":0.00016495,"MEAN_MOTION_DDOT":0},{"OBJECT_NAME":"YAOGAN-43 02D","OBJECT_ID":"2024-156D","EPOCH":"2026-03-09T13:08:17.964960","MEAN_MOTION":15.23237701,"ECCENTRICITY":0.000368,"INCLINATION":34.992,"RA_OF_ASC_NODE":104.6408,"ARG_OF_PERICENTER":78.2879,"MEAN_ANOMALY":281.8248,"EPHEMERIS_TYPE":0,"CLASSIFICATION_TYPE":"U","NORAD_CAT_ID":60948,"ELEMENT_SET_NO":999,"REV_AT_EPOCH":8424,"BSTAR":0.00047394,"MEAN_MOTION_DOT":0.0001148,"MEAN_MOTION_DDOT":0}]
